{
"type": "FeatureCollection",
"name": "grab_car_lot",
"crs": { "type": "name", "properties": { "name": "urn:ogc:def:crs:OGC:1.3:CRS84" } },
"features": [
{ "type": "Feature", "properties": { "type": "Car Lot 128" }, "geometry": { "type": "MultiPolygon", "coordinates": [ [ [ [ 103.792966229264565, 1.292190682572202 ], [ 103.79299666682617, 1.292163937977461 ], [ 103.792982438509327, 1.292147836143246 ], [ 103.792952000947693, 1.292174580737987 ], [ 103.792966229264565, 1.292190682572202 ] ] ] ] } },
{ "type": "Feature", "properties": { "type": "Car Lot 129" }, "geometry": { "type": "MultiPolygon", "coordinates": [ [ [ [ 103.792980464940783, 1.292206791045059 ], [ 103.793010902502388, 1.292180046450319 ], [ 103.792996674185517, 1.292163944616103 ], [ 103.792966236623897, 1.292190689210844 ], [ 103.792980464940783, 1.292206791045059 ] ] ] ] } },
{ "type": "Feature", "properties": { "type": "Car Lot 130" }, "geometry": { "type": "MultiPolygon", "coordinates": [ [ [ [ 103.792994696663854, 1.292222903327669 ], [ 103.793025134225445, 1.292196158732928 ], [ 103.793010905908588, 1.292180056898713 ], [ 103.792980468346968, 1.292206801493454 ], [ 103.792994696663854, 1.292222903327669 ] ] ] ] } },
{ "type": "Feature", "properties": { "type": "Car Lot 132" }, "geometry": { "type": "MultiPolygon", "coordinates": [ [ [ [ 103.793023167729572, 1.29225513579914 ], [ 103.793053605291192, 1.292228391204399 ], [ 103.793039376974335, 1.292212289370184 ], [ 103.793008939412715, 1.292239033964925 ], [ 103.793023167729572, 1.29225513579914 ] ] ] ] } },
{ "type": "Feature", "properties": { "type": "Car Lot 133" }, "geometry": { "type": "MultiPolygon", "coordinates": [ [ [ [ 103.793037399452643, 1.29227124808175 ], [ 103.793067837014263, 1.292244503487009 ], [ 103.793053608697392, 1.292228401652794 ], [ 103.793023171135772, 1.292255146247534 ], [ 103.793037399452643, 1.29227124808175 ] ] ] ] } },
{ "type": "Feature", "properties": { "type": "Car Lot 131" }, "geometry": { "type": "MultiPolygon", "coordinates": [ [ [ [ 103.793008932053382, 1.292239027326283 ], [ 103.793039369614988, 1.292212282731543 ], [ 103.793025141298116, 1.292196180897327 ], [ 103.792994703736497, 1.292222925492068 ], [ 103.793008932053382, 1.292239027326283 ] ] ] ] } },
{ "type": "Feature", "properties": { "type": "Car Lot 134" }, "geometry": { "type": "MultiPolygon", "coordinates": [ [ [ [ 103.793051646763104, 1.292287366564868 ], [ 103.793082084324723, 1.292260621970127 ], [ 103.793067856007852, 1.292244520135912 ], [ 103.793037418446232, 1.292271264730652 ], [ 103.793051646763104, 1.292287366564868 ] ] ] ] } },
{ "type": "Feature", "properties": { "type": "Car Lot 135" }, "geometry": { "type": "MultiPolygon", "coordinates": [ [ [ [ 103.793065882427257, 1.292303477283784 ], [ 103.793096319988877, 1.292276732689043 ], [ 103.793082091672005, 1.292260630854828 ], [ 103.793051654110386, 1.292287375449569 ], [ 103.793065882427257, 1.292303477283784 ] ] ] ] } },
{ "type": "Feature", "properties": { "type": "Car Lot 136" }, "geometry": { "type": "MultiPolygon", "coordinates": [ [ [ [ 103.793080153030331, 1.292319611295305 ], [ 103.793110590591951, 1.292292866700565 ], [ 103.79309636227508, 1.29227676486635 ], [ 103.79306592471346, 1.29230350946109 ], [ 103.793080153030331, 1.292319611295305 ] ] ] ] } },
{ "type": "Feature", "properties": { "type": "Car Lot 120" }, "geometry": { "type": "MultiPolygon", "coordinates": [ [ [ [ 103.79285226243924, 1.292061662583383 ], [ 103.792882700000845, 1.292034917988642 ], [ 103.792868471683974, 1.292018816154427 ], [ 103.792838034122354, 1.292045560749167 ], [ 103.79285226243924, 1.292061662583383 ] ] ] ] } },
{ "type": "Feature", "properties": { "type": "Car Lot 121" }, "geometry": { "type": "MultiPolygon", "coordinates": [ [ [ [ 103.792866494162311, 1.292077774865992 ], [ 103.792896931723902, 1.292051030271252 ], [ 103.792882703407045, 1.292034928437037 ], [ 103.792852265845426, 1.292061673031777 ], [ 103.792866494162311, 1.292077774865992 ] ] ] ] } },
{ "type": "Feature", "properties": { "type": "Car Lot 123" }, "geometry": { "type": "MultiPolygon", "coordinates": [ [ [ [ 103.792894965228029, 1.292110007337463 ], [ 103.792925402789649, 1.292083262742723 ], [ 103.792911174472792, 1.292067160908508 ], [ 103.792880736911172, 1.292093905503248 ], [ 103.792894965228029, 1.292110007337463 ] ] ] ] } },
{ "type": "Feature", "properties": { "type": "Car Lot 124" }, "geometry": { "type": "MultiPolygon", "coordinates": [ [ [ [ 103.792909196951101, 1.292126119620073 ], [ 103.79293963451272, 1.292099375025333 ], [ 103.792925406195849, 1.292083273191117 ], [ 103.792894968634229, 1.292110017785858 ], [ 103.792909196951101, 1.292126119620073 ] ] ] ] } },
{ "type": "Feature", "properties": { "type": "Car Lot 122" }, "geometry": { "type": "MultiPolygon", "coordinates": [ [ [ [ 103.79288072955184, 1.292093898864606 ], [ 103.792911167113445, 1.292067154269866 ], [ 103.792896938796574, 1.292051052435651 ], [ 103.792866501234954, 1.292077797030391 ], [ 103.79288072955184, 1.292093898864606 ] ] ] ] } },
{ "type": "Feature", "properties": { "type": "Car Lot 125" }, "geometry": { "type": "MultiPolygon", "coordinates": [ [ [ [ 103.792923444261561, 1.292142238103191 ], [ 103.79295388182318, 1.292115493508451 ], [ 103.792939653506309, 1.292099391674235 ], [ 103.79290921594469, 1.292126136268976 ], [ 103.792923444261561, 1.292142238103191 ] ] ] ] } },
{ "type": "Feature", "properties": { "type": "Car Lot 126" }, "geometry": { "type": "MultiPolygon", "coordinates": [ [ [ [ 103.792937679925714, 1.292158348822107 ], [ 103.792968117487334, 1.292131604227367 ], [ 103.792953889170462, 1.292115502393151 ], [ 103.792923451608843, 1.292142246987892 ], [ 103.792937679925714, 1.292158348822107 ] ] ] ] } },
{ "type": "Feature", "properties": { "type": "Car Lot 127" }, "geometry": { "type": "MultiPolygon", "coordinates": [ [ [ [ 103.792951950528789, 1.292174482833629 ], [ 103.792982388090408, 1.292147738238889 ], [ 103.792968159773537, 1.292131636404673 ], [ 103.792937722211917, 1.292158380999414 ], [ 103.792951950528789, 1.292174482833629 ] ] ] ] } },
{ "type": "Feature", "properties": { "type": "Car Lot 119" }, "geometry": { "type": "MultiPolygon", "coordinates": [ [ [ [ 103.792838026763022, 1.292045554110526 ], [ 103.792868464324627, 1.292018809515785 ], [ 103.792854236007784, 1.29200270768157 ], [ 103.79282379844615, 1.29202945227631 ], [ 103.792838026763022, 1.292045554110526 ] ] ] ] } },
{ "type": "Feature", "properties": { "type": "Car Lot 111" }, "geometry": { "type": "MultiPolygon", "coordinates": [ [ [ [ 103.792724083230254, 1.291916596235322 ], [ 103.79275452079186, 1.291889851640581 ], [ 103.792740292474988, 1.291873749806366 ], [ 103.792709854913369, 1.291900494401106 ], [ 103.792724083230254, 1.291916596235322 ] ] ] ] } },
{ "type": "Feature", "properties": { "type": "Car Lot 112" }, "geometry": { "type": "MultiPolygon", "coordinates": [ [ [ [ 103.792738314953326, 1.291932708517931 ], [ 103.792768752514917, 1.291905963923191 ], [ 103.79275452419806, 1.291889862088976 ], [ 103.79272408663644, 1.291916606683716 ], [ 103.792738314953326, 1.291932708517931 ] ] ] ] } },
{ "type": "Feature", "properties": { "type": "Car Lot 114" }, "geometry": { "type": "MultiPolygon", "coordinates": [ [ [ [ 103.792766786019044, 1.291964940989403 ], [ 103.792797223580664, 1.291938196394662 ], [ 103.792782995263806, 1.291922094560447 ], [ 103.792752557702187, 1.291948839155187 ], [ 103.792766786019044, 1.291964940989403 ] ] ] ] } },
{ "type": "Feature", "properties": { "type": "Car Lot 115" }, "geometry": { "type": "MultiPolygon", "coordinates": [ [ [ [ 103.792781017742115, 1.291981053272012 ], [ 103.792811455303735, 1.291954308677272 ], [ 103.792797226986863, 1.291938206843056 ], [ 103.792766789425244, 1.291964951437797 ], [ 103.792781017742115, 1.291981053272012 ] ] ] ] } },
{ "type": "Feature", "properties": { "type": "Car Lot 113" }, "geometry": { "type": "MultiPolygon", "coordinates": [ [ [ [ 103.792752550342854, 1.291948832516546 ], [ 103.792782987904459, 1.291922087921805 ], [ 103.792768759587588, 1.29190598608759 ], [ 103.792738322025969, 1.29193273068233 ], [ 103.792752550342854, 1.291948832516546 ] ] ] ] } },
{ "type": "Feature", "properties": { "type": "Car Lot 116" }, "geometry": { "type": "MultiPolygon", "coordinates": [ [ [ [ 103.792795265052575, 1.29199717175513 ], [ 103.792825702614195, 1.29197042716039 ], [ 103.792811474297324, 1.291954325326174 ], [ 103.792781036735704, 1.291981069920915 ], [ 103.792795265052575, 1.29199717175513 ] ] ] ] } },
{ "type": "Feature", "properties": { "type": "Car Lot 117" }, "geometry": { "type": "MultiPolygon", "coordinates": [ [ [ [ 103.792809500716729, 1.292013282474046 ], [ 103.792839938278348, 1.291986537879306 ], [ 103.792825709961477, 1.291970436045091 ], [ 103.792795272399857, 1.291997180639831 ], [ 103.792809500716729, 1.292013282474046 ] ] ] ] } },
{ "type": "Feature", "properties": { "type": "Car Lot 118" }, "geometry": { "type": "MultiPolygon", "coordinates": [ [ [ [ 103.792823771319803, 1.292029416485568 ], [ 103.792854208881423, 1.292002671890828 ], [ 103.792839980564551, 1.291986570056612 ], [ 103.792809543002932, 1.292013314651353 ], [ 103.792823771319803, 1.292029416485568 ] ] ] ] } },
{ "type": "Feature", "properties": { "type": "Car Lot 103" }, "geometry": { "type": "MultiPolygon", "coordinates": [ [ [ [ 103.792610098770709, 1.291787559138738 ], [ 103.792640536332314, 1.291760814543998 ], [ 103.792626308015443, 1.291744712709782 ], [ 103.792595870453823, 1.291771457304523 ], [ 103.792610098770709, 1.291787559138738 ] ] ] ] } },
{ "type": "Feature", "properties": { "type": "Car Lot 105" }, "geometry": { "type": "MultiPolygon", "coordinates": [ [ [ [ 103.792638583517501, 1.291819812527726 ], [ 103.792669021079121, 1.291793067932986 ], [ 103.792654792762264, 1.29177696609877 ], [ 103.792624355200644, 1.291803710693511 ], [ 103.792638583517501, 1.291819812527726 ] ] ] ] } },
{ "type": "Feature", "properties": { "type": "Car Lot 106" }, "geometry": { "type": "MultiPolygon", "coordinates": [ [ [ [ 103.792652815240572, 1.291835924810336 ], [ 103.792683252802192, 1.291809180215596 ], [ 103.792669024485321, 1.29179307838138 ], [ 103.792638586923701, 1.291819822976121 ], [ 103.792652815240572, 1.291835924810336 ] ] ] ] } },
{ "type": "Feature", "properties": { "type": "Car Lot 104" }, "geometry": { "type": "MultiPolygon", "coordinates": [ [ [ [ 103.792624347841311, 1.291803704054869 ], [ 103.792654785402917, 1.291776959460129 ], [ 103.792640557086045, 1.291760857625914 ], [ 103.792610119524426, 1.291787602220654 ], [ 103.792624347841311, 1.291803704054869 ] ] ] ] } },
{ "type": "Feature", "properties": { "type": "Car Lot 107" }, "geometry": { "type": "MultiPolygon", "coordinates": [ [ [ [ 103.792667062551033, 1.291852043293454 ], [ 103.792697500112652, 1.291825298698714 ], [ 103.792683271795781, 1.291809196864498 ], [ 103.792652834234161, 1.291835941459239 ], [ 103.792667062551033, 1.291852043293454 ] ] ] ] } },
{ "type": "Feature", "properties": { "type": "Car Lot 108" }, "geometry": { "type": "MultiPolygon", "coordinates": [ [ [ [ 103.792681298215186, 1.29186815401237 ], [ 103.792711735776805, 1.29184140941763 ], [ 103.792697507459934, 1.291825307583414 ], [ 103.792667069898314, 1.291852052178155 ], [ 103.792681298215186, 1.29186815401237 ] ] ] ] } },
{ "type": "Feature", "properties": { "type": "Car Lot 109" }, "geometry": { "type": "MultiPolygon", "coordinates": [ [ [ [ 103.79269556881826, 1.291884288023892 ], [ 103.79272600637988, 1.291857543429151 ], [ 103.792711778063008, 1.291841441594936 ], [ 103.792681340501389, 1.291868186189677 ], [ 103.79269556881826, 1.291884288023892 ] ] ] ] } },
{ "type": "Feature", "properties": { "type": "Car Lot 102" }, "geometry": { "type": "MultiPolygon", "coordinates": [ [ [ [ 103.79259586309449, 1.291771450665882 ], [ 103.792626300656096, 1.291744706071141 ], [ 103.792612072339253, 1.291728604236925 ], [ 103.792581634777619, 1.291755348831666 ], [ 103.79259586309449, 1.291771450665882 ] ] ] ] } },
{ "type": "Feature", "properties": { "type": "Car Lot 110" }, "geometry": { "type": "MultiPolygon", "coordinates": [ [ [ [ 103.792709847554036, 1.291900487762465 ], [ 103.792740285115642, 1.291873743167724 ], [ 103.792726056798799, 1.291857641333509 ], [ 103.792695619237165, 1.291884385928249 ], [ 103.792709847554036, 1.291900487762465 ] ] ] ] } },
{ "type": "Feature", "properties": { "type": "Car Lot 138" }, "geometry": { "type": "MultiPolygon", "coordinates": [ [ [ [ 103.793136198004973, 1.292305241733941 ], [ 103.793163070371122, 1.292335566549552 ], [ 103.793179960416623, 1.292320599418601 ], [ 103.793153088050474, 1.292290274602961 ], [ 103.793136198004973, 1.292305241733941 ] ] ] ] } },
{ "type": "Feature", "properties": { "type": "Car Lot 139" }, "geometry": { "type": "MultiPolygon", "coordinates": [ [ [ [ 103.793153123965084, 1.29229017918228 ], [ 103.793179996331233, 1.292320503997891 ], [ 103.793196886376734, 1.29230553686694 ], [ 103.793170014010585, 1.2922752120513 ], [ 103.793153123965084, 1.29229017918228 ] ] ] ] } },
{ "type": "Feature", "properties": { "type": "Car Lot 140" }, "geometry": { "type": "MultiPolygon", "coordinates": [ [ [ [ 103.793182099966515, 1.292265457963471 ], [ 103.793208972332664, 1.292295782779082 ], [ 103.793225862378165, 1.292280815648131 ], [ 103.793198990012016, 1.292250490832491 ], [ 103.793182099966515, 1.292265457963471 ] ] ] ] } },
{ "type": "Feature", "properties": { "type": "Car Lot 141" }, "geometry": { "type": "MultiPolygon", "coordinates": [ [ [ [ 103.793199018162426, 1.292250465289626 ], [ 103.793225890528575, 1.292280790105238 ], [ 103.793242780574076, 1.292265822974286 ], [ 103.793215908207927, 1.292235498158646 ], [ 103.793199018162426, 1.292250465289626 ] ] ] ] } },
{ "type": "Feature", "properties": { "type": "Car Lot 62" }, "geometry": { "type": "MultiPolygon", "coordinates": [ [ [ [ 103.793240964233874, 1.292168471119687 ], [ 103.793278690578319, 1.292183250884261 ], [ 103.793286472507631, 1.292163222014037 ], [ 103.793248746163201, 1.292148442249464 ], [ 103.793240964233874, 1.292168471119687 ] ] ] ] } },
{ "type": "Feature", "properties": { "type": "Car Lot 63" }, "geometry": { "type": "MultiPolygon", "coordinates": [ [ [ [ 103.79323317622223, 1.292188524504143 ], [ 103.793270902566675, 1.292203304268717 ], [ 103.793278684495988, 1.292183275398492 ], [ 103.793240958151557, 1.292168495633919 ], [ 103.79323317622223, 1.292188524504143 ] ] ] ] } },
{ "type": "Feature", "properties": { "type": "Car Lot 143" }, "geometry": { "type": "MultiPolygon", "coordinates": [ [ [ [ 103.793225389767997, 1.292208563978386 ], [ 103.793263116112414, 1.292223343742959 ], [ 103.793270898041754, 1.292203314872736 ], [ 103.793233171697295, 1.292188535108162 ], [ 103.793225389767997, 1.292208563978386 ] ] ] ] } },
{ "type": "Feature", "properties": { "type": "Car Lot 142" }, "geometry": { "type": "MultiPolygon", "coordinates": [ [ [ [ 103.793217598641547, 1.292228645183252 ], [ 103.793255324985978, 1.292243424947825 ], [ 103.793263106915305, 1.292223396077602 ], [ 103.793225380570874, 1.292208616313029 ], [ 103.793217598641547, 1.292228645183252 ] ] ] ] } },
{ "type": "Feature", "properties": { "type": "Car Lot 22" }, "geometry": { "type": "MultiPolygon", "coordinates": [ [ [ [ 103.793136675513736, 1.292022477578761 ], [ 103.793166614026788, 1.291995175492015 ], [ 103.793151407553879, 1.291978500605875 ], [ 103.793121469040813, 1.292005802692621 ], [ 103.793136675513736, 1.292022477578761 ] ] ] ] } },
{ "type": "Feature", "properties": { "type": "Car Lot 47" }, "geometry": { "type": "MultiPolygon", "coordinates": [ [ [ [ 103.792914548333499, 1.291918980853012 ], [ 103.792944985895119, 1.291892236258272 ], [ 103.792930757578262, 1.291876134424057 ], [ 103.792900320016642, 1.291902879018797 ], [ 103.792914548333499, 1.291918980853012 ] ] ] ] } },
{ "type": "Feature", "properties": { "type": "Car Lot 48" }, "geometry": { "type": "MultiPolygon", "coordinates": [ [ [ [ 103.79292878005657, 1.291935093135622 ], [ 103.79295921761819, 1.291908348540882 ], [ 103.792944989301319, 1.291892246706666 ], [ 103.792914551739699, 1.291918991301407 ], [ 103.79292878005657, 1.291935093135622 ] ] ] ] } },
{ "type": "Feature", "properties": { "type": "Car Lot 46" }, "geometry": { "type": "MultiPolygon", "coordinates": [ [ [ [ 103.792900312657309, 1.291902872380155 ], [ 103.792930750218915, 1.291876127785415 ], [ 103.792916521902043, 1.2918600259512 ], [ 103.792886084340424, 1.29188677054594 ], [ 103.792900312657309, 1.291902872380155 ] ] ] ] } },
{ "type": "Feature", "properties": { "type": "Car Lot 49" }, "geometry": { "type": "MultiPolygon", "coordinates": [ [ [ [ 103.792943027367031, 1.29195121161874 ], [ 103.79297346492865, 1.291924467024 ], [ 103.792959236611779, 1.291908365189784 ], [ 103.792928799050159, 1.291935109784525 ], [ 103.792943027367031, 1.29195121161874 ] ] ] ] } },
{ "type": "Feature", "properties": { "type": "Car Lot 43" }, "geometry": { "type": "MultiPolygon", "coordinates": [ [ [ [ 103.79285746543836, 1.291854271539995 ], [ 103.792887902999979, 1.291827526945255 ], [ 103.792873674683122, 1.29181142511104 ], [ 103.792843237121502, 1.29183816970578 ], [ 103.79285746543836, 1.291854271539995 ] ] ] ] } },
{ "type": "Feature", "properties": { "type": "Car Lot 44" }, "geometry": { "type": "MultiPolygon", "coordinates": [ [ [ [ 103.792871697161431, 1.291870383822605 ], [ 103.79290213472305, 1.291843639227865 ], [ 103.792887906406179, 1.291827537393649 ], [ 103.792857468844559, 1.29185428198839 ], [ 103.792871697161431, 1.291870383822605 ] ] ] ] } },
{ "type": "Feature", "properties": { "type": "Car Lot 42" }, "geometry": { "type": "MultiPolygon", "coordinates": [ [ [ [ 103.79284322976217, 1.291838163067139 ], [ 103.792873667323775, 1.291811418472398 ], [ 103.792859439006904, 1.291795316638183 ], [ 103.792829001445284, 1.291822061232923 ], [ 103.79284322976217, 1.291838163067139 ] ] ] ] } },
{ "type": "Feature", "properties": { "type": "Car Lot 45" }, "geometry": { "type": "MultiPolygon", "coordinates": [ [ [ [ 103.792885944471891, 1.291886502305723 ], [ 103.792916382033511, 1.291859757710983 ], [ 103.792902153716639, 1.291843655876767 ], [ 103.79287171615502, 1.291870400471508 ], [ 103.792885944471891, 1.291886502305723 ] ] ] ] } },
{ "type": "Feature", "properties": { "type": "Car Lot 41" }, "geometry": { "type": "MultiPolygon", "coordinates": [ [ [ [ 103.792828768948169, 1.291821910346529 ], [ 103.792859206509789, 1.291795165751789 ], [ 103.792844978192932, 1.291779063917574 ], [ 103.792814540631312, 1.291805808512314 ], [ 103.792828768948169, 1.291821910346529 ] ] ] ] } },
{ "type": "Feature", "properties": { "type": "Car Lot 40" }, "geometry": { "type": "MultiPolygon", "coordinates": [ [ [ [ 103.792814533271979, 1.291805801873672 ], [ 103.792844970833585, 1.291779057278932 ], [ 103.792830742516713, 1.291762955444717 ], [ 103.792800304955094, 1.291789700039457 ], [ 103.792814533271979, 1.291805801873672 ] ] ] ] } },
{ "type": "Feature", "properties": { "type": "Car Lot 39" }, "geometry": { "type": "MultiPolygon", "coordinates": [ [ [ [ 103.792800231612105, 1.291789621276939 ], [ 103.792830669173711, 1.291762876682199 ], [ 103.792816440856839, 1.291746774847984 ], [ 103.79278600329522, 1.291773519442724 ], [ 103.792800231612105, 1.291789621276939 ] ] ] ] } },
{ "type": "Feature", "properties": { "type": "Car Lot 80" }, "geometry": { "type": "MultiPolygon", "coordinates": [ [ [ [ 103.792827825585618, 1.291888475095368 ], [ 103.792858263147224, 1.291861730500627 ], [ 103.792844034830352, 1.291845628666412 ], [ 103.792813597268733, 1.291872373261152 ], [ 103.792827825585618, 1.291888475095368 ] ] ] ] } },
{ "type": "Feature", "properties": { "type": "Car Lot 81" }, "geometry": { "type": "MultiPolygon", "coordinates": [ [ [ [ 103.792813364771618, 1.291872222374759 ], [ 103.792843802333238, 1.291845477780018 ], [ 103.79282957401638, 1.291829375945803 ], [ 103.792799136454761, 1.291856120540543 ], [ 103.792813364771618, 1.291872222374759 ] ] ] ] } },
{ "type": "Feature", "properties": { "type": "Car Lot 82" }, "geometry": { "type": "MultiPolygon", "coordinates": [ [ [ [ 103.792799129095428, 1.291856113901902 ], [ 103.792829566657034, 1.291829369307161 ], [ 103.792815338340162, 1.291813267472946 ], [ 103.792784900778543, 1.291840012067686 ], [ 103.792799129095428, 1.291856113901902 ] ] ] ] } },
{ "type": "Feature", "properties": { "type": "Car Lot 83" }, "geometry": { "type": "MultiPolygon", "coordinates": [ [ [ [ 103.792784827435554, 1.291839933305168 ], [ 103.792815264997159, 1.291813188710428 ], [ 103.792801036680288, 1.291797086876213 ], [ 103.792770599118668, 1.291823831470953 ], [ 103.792784827435554, 1.291839933305168 ] ] ] ] } },
{ "type": "Feature", "properties": { "type": "Car Lot 76" }, "geometry": { "type": "MultiPolygon", "coordinates": [ [ [ [ 103.792899132015734, 1.291969471249455 ], [ 103.792929569577339, 1.291942726654715 ], [ 103.792915341260468, 1.2919266248205 ], [ 103.792884903698848, 1.29195336941524 ], [ 103.792899132015734, 1.291969471249455 ] ] ] ] } },
{ "type": "Feature", "properties": { "type": "Car Lot 77" }, "geometry": { "type": "MultiPolygon", "coordinates": [ [ [ [ 103.792884671201733, 1.291953218528846 ], [ 103.792915108763353, 1.291926473934106 ], [ 103.792900880446496, 1.29191037209989 ], [ 103.792870442884876, 1.291937116694631 ], [ 103.792884671201733, 1.291953218528846 ] ] ] ] } },
{ "type": "Feature", "properties": { "type": "Car Lot 78" }, "geometry": { "type": "MultiPolygon", "coordinates": [ [ [ [ 103.792870435525543, 1.291937110055989 ], [ 103.792900873087149, 1.291910365461249 ], [ 103.792886644770277, 1.291894263627034 ], [ 103.792856207208658, 1.291921008221774 ], [ 103.792870435525543, 1.291937110055989 ] ] ] ] } },
{ "type": "Feature", "properties": { "type": "Car Lot 79" }, "geometry": { "type": "MultiPolygon", "coordinates": [ [ [ [ 103.792856133865669, 1.291920929459256 ], [ 103.792886571427275, 1.291894184864516 ], [ 103.792872343110403, 1.2918780830303 ], [ 103.792841905548784, 1.291904827625041 ], [ 103.792856133865669, 1.291920929459256 ] ] ] ] } },
{ "type": "Feature", "properties": { "type": "Car Lot 72" }, "geometry": { "type": "MultiPolygon", "coordinates": [ [ [ [ 103.792972053399836, 1.292051336994154 ], [ 103.793002490961442, 1.292024592399414 ], [ 103.79298826264457, 1.292008490565199 ], [ 103.792957825082951, 1.292035235159939 ], [ 103.792972053399836, 1.292051336994154 ] ] ] ] } },
{ "type": "Feature", "properties": { "type": "Car Lot 73" }, "geometry": { "type": "MultiPolygon", "coordinates": [ [ [ [ 103.792957592585836, 1.292035084273545 ], [ 103.792988030147455, 1.292008339678805 ], [ 103.792973801830598, 1.291992237844589 ], [ 103.792943364268979, 1.29201898243933 ], [ 103.792957592585836, 1.292035084273545 ] ] ] ] } },
{ "type": "Feature", "properties": { "type": "Car Lot 74" }, "geometry": { "type": "MultiPolygon", "coordinates": [ [ [ [ 103.792943356909646, 1.292018975800688 ], [ 103.792973794471251, 1.291992231205948 ], [ 103.79295956615438, 1.291976129371733 ], [ 103.79292912859276, 1.292002873966473 ], [ 103.792943356909646, 1.292018975800688 ] ] ] ] } },
{ "type": "Feature", "properties": { "type": "Car Lot 75" }, "geometry": { "type": "MultiPolygon", "coordinates": [ [ [ [ 103.792929055249772, 1.292002795203955 ], [ 103.792959492811377, 1.291976050609215 ], [ 103.792945264494506, 1.291959948775 ], [ 103.792914826932886, 1.29198669336974 ], [ 103.792929055249772, 1.292002795203955 ] ] ] ] } },
{ "type": "Feature", "properties": { "type": "Car Lot 68" }, "geometry": { "type": "MultiPolygon", "coordinates": [ [ [ [ 103.793043608284435, 1.292131712012091 ], [ 103.793074045846041, 1.292104967417351 ], [ 103.793059817529169, 1.292088865583136 ], [ 103.79302937996755, 1.292115610177876 ], [ 103.793043608284435, 1.292131712012091 ] ] ] ] } },
{ "type": "Feature", "properties": { "type": "Car Lot 69" }, "geometry": { "type": "MultiPolygon", "coordinates": [ [ [ [ 103.793029147470435, 1.292115459291482 ], [ 103.793059585032054, 1.292088714696741 ], [ 103.793045356715197, 1.292072612862526 ], [ 103.793014919153578, 1.292099357457267 ], [ 103.793029147470435, 1.292115459291482 ] ] ] ] } },
{ "type": "Feature", "properties": { "type": "Car Lot 70" }, "geometry": { "type": "MultiPolygon", "coordinates": [ [ [ [ 103.793014911794245, 1.292099350818625 ], [ 103.79304534935585, 1.292072606223885 ], [ 103.793031121038979, 1.292056504389669 ], [ 103.793000683477359, 1.29208324898441 ], [ 103.793014911794245, 1.292099350818625 ] ] ] ] } },
{ "type": "Feature", "properties": { "type": "Car Lot 71" }, "geometry": { "type": "MultiPolygon", "coordinates": [ [ [ [ 103.793000610134371, 1.292083170221892 ], [ 103.793031047695976, 1.292056425627151 ], [ 103.793016819379105, 1.292040323792936 ], [ 103.792986381817485, 1.292067068387676 ], [ 103.793000610134371, 1.292083170221892 ] ] ] ] } },
{ "type": "Feature", "properties": { "type": "Car Lot 64" }, "geometry": { "type": "MultiPolygon", "coordinates": [ [ [ [ 103.793115163169006, 1.292211590121107 ], [ 103.793145600730611, 1.292184845526367 ], [ 103.79313137241374, 1.292168743692152 ], [ 103.79310093485212, 1.292195488286892 ], [ 103.793115163169006, 1.292211590121107 ] ] ] ] } },
{ "type": "Feature", "properties": { "type": "Car Lot 65" }, "geometry": { "type": "MultiPolygon", "coordinates": [ [ [ [ 103.793100702355005, 1.292195337400498 ], [ 103.793131139916625, 1.292168592805758 ], [ 103.793116911599768, 1.292152490971542 ], [ 103.793086474038148, 1.292179235566283 ], [ 103.793100702355005, 1.292195337400498 ] ] ] ] } },
{ "type": "Feature", "properties": { "type": "Car Lot 66" }, "geometry": { "type": "MultiPolygon", "coordinates": [ [ [ [ 103.793086466678815, 1.292179228927641 ], [ 103.793116904240421, 1.292152484332901 ], [ 103.793102675923549, 1.292136382498686 ], [ 103.79307223836193, 1.292163127093426 ], [ 103.793086466678815, 1.292179228927641 ] ] ] ] } },
{ "type": "Feature", "properties": { "type": "Car Lot 67" }, "geometry": { "type": "MultiPolygon", "coordinates": [ [ [ [ 103.793072165018941, 1.292163048330908 ], [ 103.793102602580547, 1.292136303736168 ], [ 103.793088374263675, 1.292120201901952 ], [ 103.793057936702056, 1.292146946496693 ], [ 103.793072165018941, 1.292163048330908 ] ] ] ] } },
{ "type": "Feature", "properties": { "type": "Car Lot 52" }, "geometry": { "type": "MultiPolygon", "coordinates": [ [ [ [ 103.792993121573673, 1.292007008919521 ], [ 103.793023559135293, 1.291980264324781 ], [ 103.793009330818435, 1.291964162490565 ], [ 103.792978893256816, 1.291990907085306 ], [ 103.792993121573673, 1.292007008919521 ] ] ] ] } },
{ "type": "Feature", "properties": { "type": "Car Lot 51" }, "geometry": { "type": "MultiPolygon", "coordinates": [ [ [ [ 103.792978885897483, 1.291990900446664 ], [ 103.793009323459088, 1.291964155851924 ], [ 103.792995095142217, 1.291948054017709 ], [ 103.792964657580598, 1.291974798612449 ], [ 103.792978885897483, 1.291990900446664 ] ] ] ] } },
{ "type": "Feature", "properties": { "type": "Car Lot 50" }, "geometry": { "type": "MultiPolygon", "coordinates": [ [ [ [ 103.792964584237609, 1.291974719849931 ], [ 103.792995021799214, 1.291947975255191 ], [ 103.792980793482343, 1.291931873420975 ], [ 103.792950355920723, 1.291958618015716 ], [ 103.792964584237609, 1.291974719849931 ] ] ] ] } },
{ "type": "Feature", "properties": { "type": "Car Lot 57" }, "geometry": { "type": "MultiPolygon", "coordinates": [ [ [ [ 103.793076528500421, 1.292101649022384 ], [ 103.793106966062027, 1.292074904427643 ], [ 103.793092737745155, 1.292058802593428 ], [ 103.793062300183536, 1.292085547188168 ], [ 103.793076528500421, 1.292101649022384 ] ] ] ] } },
{ "type": "Feature", "properties": { "type": "Car Lot 56" }, "geometry": { "type": "MultiPolygon", "coordinates": [ [ [ [ 103.793062067686421, 1.292085396301774 ], [ 103.79309250524804, 1.292058651707034 ], [ 103.793078276931183, 1.292042549872819 ], [ 103.793047839369564, 1.292069294467559 ], [ 103.793062067686421, 1.292085396301774 ] ] ] ] } },
{ "type": "Feature", "properties": { "type": "Car Lot 55" }, "geometry": { "type": "MultiPolygon", "coordinates": [ [ [ [ 103.793047832010231, 1.292069287828918 ], [ 103.793078269571836, 1.292042543234177 ], [ 103.793064041254965, 1.292026441399962 ], [ 103.793033603693345, 1.292053185994702 ], [ 103.793047832010231, 1.292069287828918 ] ] ] ] } },
{ "type": "Feature", "properties": { "type": "Car Lot 54" }, "geometry": { "type": "MultiPolygon", "coordinates": [ [ [ [ 103.793033530350357, 1.292053107232184 ], [ 103.793063967911962, 1.292026362637444 ], [ 103.793049739595091, 1.292010260803229 ], [ 103.793019302033471, 1.292037005397969 ], [ 103.793033530350357, 1.292053107232184 ] ] ] ] } },
{ "type": "Feature", "properties": { "type": "Car Lot 61" }, "geometry": { "type": "MultiPolygon", "coordinates": [ [ [ [ 103.793148704521172, 1.29218165135863 ], [ 103.793179142082778, 1.292154906763889 ], [ 103.793164913765906, 1.292138804929674 ], [ 103.793134476204287, 1.292165549524414 ], [ 103.793148704521172, 1.29218165135863 ] ] ] ] } },
{ "type": "Feature", "properties": { "type": "Car Lot 60" }, "geometry": { "type": "MultiPolygon", "coordinates": [ [ [ [ 103.793134243707172, 1.29216539863802 ], [ 103.793164681268792, 1.29213865404328 ], [ 103.793150452951934, 1.292122552209065 ], [ 103.793120015390315, 1.292149296803805 ], [ 103.793134243707172, 1.29216539863802 ] ] ] ] } },
{ "type": "Feature", "properties": { "type": "Car Lot 59" }, "geometry": { "type": "MultiPolygon", "coordinates": [ [ [ [ 103.793120008030982, 1.292149290165163 ], [ 103.793150445592588, 1.292122545570423 ], [ 103.793136217275716, 1.292106443736208 ], [ 103.793105779714097, 1.292133188330948 ], [ 103.793120008030982, 1.292149290165163 ] ] ] ] } },
{ "type": "Feature", "properties": { "type": "Car Lot 58" }, "geometry": { "type": "MultiPolygon", "coordinates": [ [ [ [ 103.793105706371108, 1.29213310956843 ], [ 103.793136143932713, 1.29210636497369 ], [ 103.793121915615842, 1.292090263139475 ], [ 103.793091478054222, 1.292117007734215 ], [ 103.793105706371108, 1.29213310956843 ] ] ] ] } },
{ "type": "Feature", "properties": { "type": "Car Lot 38" }, "geometry": { "type": "MultiPolygon", "coordinates": [ [ [ [ 103.792715535827881, 1.291696751412107 ], [ 103.792745973389501, 1.291670006817367 ], [ 103.792731745072643, 1.291653904983151 ], [ 103.792701307511024, 1.291680649577892 ], [ 103.792715535827881, 1.291696751412107 ] ] ] ] } },
{ "type": "Feature", "properties": { "type": "Car Lot 37" }, "geometry": { "type": "MultiPolygon", "coordinates": [ [ [ [ 103.792701300151691, 1.29168064293925 ], [ 103.792731737713297, 1.29165389834451 ], [ 103.792717509396425, 1.291637796510295 ], [ 103.792687071834806, 1.291664541105035 ], [ 103.792701300151691, 1.29168064293925 ] ] ] ] } },
{ "type": "Feature", "properties": { "type": "Car Lot 36" }, "geometry": { "type": "MultiPolygon", "coordinates": [ [ [ [ 103.792686839337691, 1.291664390218641 ], [ 103.79271727689931, 1.291637645623901 ], [ 103.792703048582453, 1.291621543789685 ], [ 103.792672611020834, 1.291648288384426 ], [ 103.792686839337691, 1.291664390218641 ] ] ] ] } },
{ "type": "Feature", "properties": { "type": "Car Lot 35" }, "geometry": { "type": "MultiPolygon", "coordinates": [ [ [ [ 103.792672603661501, 1.291648281745784 ], [ 103.792703041223106, 1.291621537151044 ], [ 103.792688812906235, 1.291605435316829 ], [ 103.792658375344615, 1.291632179911569 ], [ 103.792672603661501, 1.291648281745784 ] ] ] ] } },
{ "type": "Feature", "properties": { "type": "Car Lot 34" }, "geometry": { "type": "MultiPolygon", "coordinates": [ [ [ [ 103.792658302001627, 1.291632101149051 ], [ 103.792688739563232, 1.291605356554311 ], [ 103.792674511246361, 1.291589254720096 ], [ 103.792644073684741, 1.291615999314836 ], [ 103.792658302001627, 1.291632101149051 ] ] ] ] } },
{ "type": "Feature", "properties": { "type": "Car Lot 88" }, "geometry": { "type": "MultiPolygon", "coordinates": [ [ [ [ 103.792681994475728, 1.291725634243128 ], [ 103.792712432037348, 1.291698889648387 ], [ 103.792698203720491, 1.291682787814172 ], [ 103.792667766158871, 1.291709532408913 ], [ 103.792681994475728, 1.291725634243128 ] ] ] ] } },
{ "type": "Feature", "properties": { "type": "Car Lot 89" }, "geometry": { "type": "MultiPolygon", "coordinates": [ [ [ [ 103.792667758799539, 1.291709525770271 ], [ 103.792698196361144, 1.29168278117553 ], [ 103.792683968044273, 1.291666679341315 ], [ 103.792653530482653, 1.291693423936055 ], [ 103.792667758799539, 1.291709525770271 ] ] ] ] } },
{ "type": "Feature", "properties": { "type": "Car Lot 90" }, "geometry": { "type": "MultiPolygon", "coordinates": [ [ [ [ 103.792653297985538, 1.291693273049662 ], [ 103.792683735547158, 1.291666528454921 ], [ 103.7926695072303, 1.291650426620706 ], [ 103.792639069668681, 1.291677171215446 ], [ 103.792653297985538, 1.291693273049662 ] ] ] ] } },
{ "type": "Feature", "properties": { "type": "Car Lot 91" }, "geometry": { "type": "MultiPolygon", "coordinates": [ [ [ [ 103.792639062309348, 1.291677164576805 ], [ 103.792669499870954, 1.291650419982064 ], [ 103.792655271554082, 1.291634318147849 ], [ 103.792624833992463, 1.291661062742589 ], [ 103.792639062309348, 1.291677164576805 ] ] ] ] } },
{ "type": "Feature", "properties": { "type": "Car Lot 84" }, "geometry": { "type": "MultiPolygon", "coordinates": [ [ [ [ 103.792755164314315, 1.291808493805668 ], [ 103.792785601875934, 1.291781749210928 ], [ 103.792771373559077, 1.291765647376713 ], [ 103.792740935997458, 1.291792391971453 ], [ 103.792755164314315, 1.291808493805668 ] ] ] ] } },
{ "type": "Feature", "properties": { "type": "Car Lot 85" }, "geometry": { "type": "MultiPolygon", "coordinates": [ [ [ [ 103.792740928638125, 1.291792385332811 ], [ 103.79277136619973, 1.291765640738071 ], [ 103.792757137882859, 1.291749538903856 ], [ 103.792726700321239, 1.291776283498596 ], [ 103.792740928638125, 1.291792385332811 ] ] ] ] } },
{ "type": "Feature", "properties": { "type": "Car Lot 86" }, "geometry": { "type": "MultiPolygon", "coordinates": [ [ [ [ 103.792726467824124, 1.291776132612202 ], [ 103.792756905385744, 1.291749388017462 ], [ 103.792742677068887, 1.291733286183246 ], [ 103.792712239507267, 1.291760030777987 ], [ 103.792726467824124, 1.291776132612202 ] ] ] ] } },
{ "type": "Feature", "properties": { "type": "Car Lot 87" }, "geometry": { "type": "MultiPolygon", "coordinates": [ [ [ [ 103.792712232147935, 1.291760024139345 ], [ 103.79274266970954, 1.291733279544605 ], [ 103.792728441392669, 1.29171717771039 ], [ 103.792698003831049, 1.29174392230513 ], [ 103.792712232147935, 1.291760024139345 ] ] ] ] } },
{ "type": "Feature", "properties": { "type": "Car Lot 28" }, "geometry": { "type": "MultiPolygon", "coordinates": [ [ [ [ 103.792787762303917, 1.291633063910085 ], [ 103.792818199865522, 1.291606319315345 ], [ 103.792803971548651, 1.29159021748113 ], [ 103.792773533987031, 1.29161696207587 ], [ 103.792787762303917, 1.291633063910085 ] ] ] ] } },
{ "type": "Feature", "properties": { "type": "Car Lot 29" }, "geometry": { "type": "MultiPolygon", "coordinates": [ [ [ [ 103.792773301489916, 1.291616811189476 ], [ 103.792803739051536, 1.291590066594736 ], [ 103.792789510734679, 1.29157396476052 ], [ 103.792759073173059, 1.291600709355261 ], [ 103.792773301489916, 1.291616811189476 ] ] ] ] } },
{ "type": "Feature", "properties": { "type": "Car Lot 30" }, "geometry": { "type": "MultiPolygon", "coordinates": [ [ [ [ 103.792759065813726, 1.291600702716619 ], [ 103.792789503375332, 1.291573958121879 ], [ 103.79277527505846, 1.291557856287664 ], [ 103.792744837496841, 1.291584600882404 ], [ 103.792759065813726, 1.291600702716619 ] ] ] ] } },
{ "type": "Feature", "properties": { "type": "Car Lot 31" }, "geometry": { "type": "MultiPolygon", "coordinates": [ [ [ [ 103.792744764153852, 1.291584522119886 ], [ 103.792775201715457, 1.291557777525146 ], [ 103.792760973398586, 1.291541675690931 ], [ 103.792730535836967, 1.291568420285671 ], [ 103.792744764153852, 1.291584522119886 ] ] ] ] } },
{ "type": "Feature", "properties": { "type": "Car Lot 32" }, "geometry": { "type": "MultiPolygon", "coordinates": [ [ [ [ 103.792715462055924, 1.291552129869612 ], [ 103.792745899617529, 1.291525385274872 ], [ 103.792731671300658, 1.291509283440657 ], [ 103.792701233739038, 1.291536028035397 ], [ 103.792715462055924, 1.291552129869612 ] ] ] ] } },
{ "type": "Feature", "properties": { "type": "Car Lot 33" }, "geometry": { "type": "MultiPolygon", "coordinates": [ [ [ [ 103.792701160396049, 1.291535949272879 ], [ 103.792731597957655, 1.291509204678139 ], [ 103.792717369640783, 1.291493102843924 ], [ 103.792686932079164, 1.291519847438664 ], [ 103.792701160396049, 1.291535949272879 ] ] ] ] } },
{ "type": "Feature", "properties": { "type": "Car Lot 24" }, "geometry": { "type": "MultiPolygon", "coordinates": [ [ [ [ 103.792905665603655, 1.291761411685424 ], [ 103.792936103165275, 1.291734667090684 ], [ 103.792921874848417, 1.291718565256468 ], [ 103.792891437286798, 1.291745309851209 ], [ 103.792905665603655, 1.291761411685424 ] ] ] ] } },
{ "type": "Feature", "properties": { "type": "Car Lot 25" }, "geometry": { "type": "MultiPolygon", "coordinates": [ [ [ [ 103.792891429927465, 1.291745303212567 ], [ 103.792921867489071, 1.291718558617827 ], [ 103.792907639172199, 1.291702456783612 ], [ 103.79287720161058, 1.291729201378352 ], [ 103.792891429927465, 1.291745303212567 ] ] ] ] } },
{ "type": "Feature", "properties": { "type": "Car Lot 26" }, "geometry": { "type": "MultiPolygon", "coordinates": [ [ [ [ 103.792868024752906, 1.291720292472229 ], [ 103.792898462314525, 1.291693547877489 ], [ 103.792884233997668, 1.291677446043273 ], [ 103.792853796436049, 1.291704190638014 ], [ 103.792868024752906, 1.291720292472229 ] ] ] ] } },
{ "type": "Feature", "properties": { "type": "Car Lot 27" }, "geometry": { "type": "MultiPolygon", "coordinates": [ [ [ [ 103.792853789076716, 1.291704183999372 ], [ 103.792884226638321, 1.291677439404632 ], [ 103.79286999832145, 1.291661337570417 ], [ 103.79283956075983, 1.291688082165157 ], [ 103.792853789076716, 1.291704183999372 ] ] ] ] } },
{ "type": "Feature", "properties": { "type": "Car Lot 18" }, "geometry": { "type": "MultiPolygon", "coordinates": [ [ [ [ 103.793157793336022, 1.291853151116282 ], [ 103.793188230897627, 1.291826406521541 ], [ 103.793174002580756, 1.291810304687326 ], [ 103.793143565019136, 1.291837049282067 ], [ 103.793157793336022, 1.291853151116282 ] ] ] ] } },
{ "type": "Feature", "properties": { "type": "Car Lot 17" }, "geometry": { "type": "MultiPolygon", "coordinates": [ [ [ [ 103.793143557659803, 1.291837042643425 ], [ 103.793173995221409, 1.291810298048684 ], [ 103.793159766904566, 1.291794196214469 ], [ 103.793129329342932, 1.29182094080921 ], [ 103.793143557659803, 1.291837042643425 ] ] ] ] } },
{ "type": "Feature", "properties": { "type": "Car Lot 9" }, "geometry": { "type": "MultiPolygon", "coordinates": [ [ [ [ 103.793029614127036, 1.291708084768221 ], [ 103.793060051688641, 1.291681340173481 ], [ 103.79304582337177, 1.291665238339265 ], [ 103.793015385810151, 1.291691982934006 ], [ 103.793029614127036, 1.291708084768221 ] ] ] ] } },
{ "type": "Feature", "properties": { "type": "Car Lot 10" }, "geometry": { "type": "MultiPolygon", "coordinates": [ [ [ [ 103.793043845850107, 1.291724197050831 ], [ 103.793074283411698, 1.29169745245609 ], [ 103.793060055094841, 1.291681350621875 ], [ 103.793029617533222, 1.291708095216616 ], [ 103.793043845850107, 1.291724197050831 ] ] ] ] } },
{ "type": "Feature", "properties": { "type": "Car Lot 12" }, "geometry": { "type": "MultiPolygon", "coordinates": [ [ [ [ 103.793072316915826, 1.291756429522302 ], [ 103.793102754477445, 1.291729684927561 ], [ 103.793088526160588, 1.291713583093346 ], [ 103.793058088598968, 1.291740327688087 ], [ 103.793072316915826, 1.291756429522302 ] ] ] ] } },
{ "type": "Feature", "properties": { "type": "Car Lot 13" }, "geometry": { "type": "MultiPolygon", "coordinates": [ [ [ [ 103.793086548638897, 1.291772541804912 ], [ 103.793116986200516, 1.291745797210171 ], [ 103.793102757883645, 1.291729695375956 ], [ 103.793072320322025, 1.291756439970696 ], [ 103.793086548638897, 1.291772541804912 ] ] ] ] } },
{ "type": "Feature", "properties": { "type": "Car Lot 11" }, "geometry": { "type": "MultiPolygon", "coordinates": [ [ [ [ 103.793058081239636, 1.291740321049445 ], [ 103.793088518801241, 1.291713576454705 ], [ 103.79307429048437, 1.291697474620489 ], [ 103.79304385292275, 1.29172421921523 ], [ 103.793058081239636, 1.291740321049445 ] ] ] ] } },
{ "type": "Feature", "properties": { "type": "Car Lot 14" }, "geometry": { "type": "MultiPolygon", "coordinates": [ [ [ [ 103.793100795949357, 1.29178866028803 ], [ 103.793131233510977, 1.291761915693289 ], [ 103.793117005194105, 1.291745813859074 ], [ 103.793086567632486, 1.291772558453814 ], [ 103.793100795949357, 1.29178866028803 ] ] ] ] } },
{ "type": "Feature", "properties": { "type": "Car Lot 15" }, "geometry": { "type": "MultiPolygon", "coordinates": [ [ [ [ 103.79311503161351, 1.291804771006946 ], [ 103.79314546917513, 1.291778026412205 ], [ 103.793131240858258, 1.29176192457799 ], [ 103.793100803296639, 1.29178866917273 ], [ 103.79311503161351, 1.291804771006946 ] ] ] ] } },
{ "type": "Feature", "properties": { "type": "Car Lot 16" }, "geometry": { "type": "MultiPolygon", "coordinates": [ [ [ [ 103.793129302216585, 1.291820905018467 ], [ 103.793159739778204, 1.291794160423727 ], [ 103.793145511461333, 1.291778058589512 ], [ 103.793115073899713, 1.291804803184252 ], [ 103.793129302216585, 1.291820905018467 ] ] ] ] } },
{ "type": "Feature", "properties": { "type": "Car Lot 1" }, "geometry": { "type": "MultiPolygon", "coordinates": [ [ [ [ 103.792915643348564, 1.291579068589154 ], [ 103.792946080910156, 1.291552323994414 ], [ 103.792931852593298, 1.291536222160199 ], [ 103.792901415031679, 1.291562966754939 ], [ 103.792915643348564, 1.291579068589154 ] ] ] ] } },
{ "type": "Feature", "properties": { "type": "Car Lot 3" }, "geometry": { "type": "MultiPolygon", "coordinates": [ [ [ [ 103.792944114414283, 1.291611301060625 ], [ 103.792974551975902, 1.291584556465885 ], [ 103.792960323659045, 1.29156845463167 ], [ 103.792929886097426, 1.29159519922641 ], [ 103.792944114414283, 1.291611301060625 ] ] ] ] } },
{ "type": "Feature", "properties": { "type": "Car Lot 4" }, "geometry": { "type": "MultiPolygon", "coordinates": [ [ [ [ 103.792958346137354, 1.291627413343235 ], [ 103.792988783698974, 1.291600668748495 ], [ 103.792974555382102, 1.291584566914279 ], [ 103.792944117820483, 1.29161131150902 ], [ 103.792958346137354, 1.291627413343235 ] ] ] ] } },
{ "type": "Feature", "properties": { "type": "Car Lot 2" }, "geometry": { "type": "MultiPolygon", "coordinates": [ [ [ [ 103.792929878738093, 1.291595192587768 ], [ 103.792960316299698, 1.291568447993028 ], [ 103.792946087982827, 1.291552346158813 ], [ 103.792915650421207, 1.291579090753553 ], [ 103.792929878738093, 1.291595192587768 ] ] ] ] } },
{ "type": "Feature", "properties": { "type": "Car Lot 5" }, "geometry": { "type": "MultiPolygon", "coordinates": [ [ [ [ 103.792972593447814, 1.291643531826353 ], [ 103.793003031009434, 1.291616787231613 ], [ 103.792988802692562, 1.291600685397397 ], [ 103.792958365130943, 1.291627429992138 ], [ 103.792972593447814, 1.291643531826353 ] ] ] ] } },
{ "type": "Feature", "properties": { "type": "Car Lot 6" }, "geometry": { "type": "MultiPolygon", "coordinates": [ [ [ [ 103.792986829111967, 1.291659642545269 ], [ 103.793017266673587, 1.291632897950529 ], [ 103.793003038356716, 1.291616796116313 ], [ 103.792972600795096, 1.291643540711054 ], [ 103.792986829111967, 1.291659642545269 ] ] ] ] } },
{ "type": "Feature", "properties": { "type": "Car Lot 7" }, "geometry": { "type": "MultiPolygon", "coordinates": [ [ [ [ 103.793001099715042, 1.291675776556791 ], [ 103.793031537276661, 1.291649031962051 ], [ 103.79301730895979, 1.291632930127835 ], [ 103.79298687139817, 1.291659674722576 ], [ 103.793001099715042, 1.291675776556791 ] ] ] ] } },
{ "type": "Feature", "properties": { "type": "Car Lot 8" }, "geometry": { "type": "MultiPolygon", "coordinates": [ [ [ [ 103.793015378450818, 1.291691976295364 ], [ 103.793045816012423, 1.291665231700623 ], [ 103.79303158769558, 1.291649129866408 ], [ 103.793001150133946, 1.291675874461149 ], [ 103.793015378450818, 1.291691976295364 ] ] ] ] } },
{ "type": "Feature", "properties": { "type": "Car Lot 19" }, "geometry": { "type": "MultiPolygon", "coordinates": [ [ [ [ 103.793187645821661, 1.291892012910005 ], [ 103.793160901226912, 1.2918615753484 ], [ 103.793144799392707, 1.291875803665271 ], [ 103.793171543987441, 1.291906241226891 ], [ 103.793187645821661, 1.291892012910005 ] ] ] ] } },
{ "type": "Feature", "properties": { "type": "Car Lot 20" }, "geometry": { "type": "MultiPolygon", "coordinates": [ [ [ [ 103.793171537348798, 1.291906248586223 ], [ 103.793144792754063, 1.291875811024618 ], [ 103.793128690919843, 1.291890039341461 ], [ 103.793155435514592, 1.291920476903095 ], [ 103.793171537348798, 1.291906248586223 ] ] ] ] } },
{ "type": "Feature", "properties": { "type": "Car Lot 21" }, "geometry": { "type": "MultiPolygon", "coordinates": [ [ [ [ 103.793155399723844, 1.291920504029442 ], [ 103.793128655129109, 1.291890066467823 ], [ 103.79311255329489, 1.291904294784694 ], [ 103.793139297889624, 1.291934732346314 ], [ 103.793155399723844, 1.291920504029442 ] ] ] ] } },
{ "type": "Feature", "properties": { "type": "Car Lot 53" }, "geometry": { "type": "MultiPolygon", "coordinates": [ [ [ [ 103.79291339316444, 1.291677173573742 ], [ 103.792886648569706, 1.291646736012137 ], [ 103.792870546735486, 1.29166096432898 ], [ 103.792897291330235, 1.291691401890614 ], [ 103.79291339316444, 1.291677173573742 ] ] ] ] } },
{ "type": "Feature", "properties": { "type": "Car Lot 23" }, "geometry": { "type": "MultiPolygon", "coordinates": [ [ [ [ 103.792909169438616, 1.29152325603553 ], [ 103.792882424843881, 1.291492818473924 ], [ 103.792866323009662, 1.291507046790767 ], [ 103.79289306760441, 1.291537484352401 ], [ 103.792909169438616, 1.29152325603553 ] ] ] ] } },
{ "type": "Feature", "properties": { "type": "Car Lot 95" }, "geometry": { "type": "MultiPolygon", "coordinates": [ [ [ [ 103.79254133261, 1.291603631053466 ], [ 103.792514588015266, 1.291573193491861 ], [ 103.792498486181046, 1.291587421808704 ], [ 103.792525230775794, 1.291617859370338 ], [ 103.79254133261, 1.291603631053466 ] ] ] ] } },
{ "type": "Feature", "properties": { "type": "Car Lot 94" }, "geometry": { "type": "MultiPolygon", "coordinates": [ [ [ [ 103.792557606377159, 1.291589158581149 ], [ 103.792530861782424, 1.291558721019543 ], [ 103.792514759948205, 1.291572949336386 ], [ 103.792541504542953, 1.29160338689802 ], [ 103.792557606377159, 1.291589158581149 ] ] ] ] } },
{ "type": "Feature", "properties": { "type": "Car Lot 93" }, "geometry": { "type": "MultiPolygon", "coordinates": [ [ [ [ 103.792585992299252, 1.291564251021494 ], [ 103.792559247704517, 1.291533813459889 ], [ 103.792543145870297, 1.291548041776732 ], [ 103.792569890465046, 1.291578479338366 ], [ 103.792585992299252, 1.291564251021494 ] ] ] ] } },
{ "type": "Feature", "properties": { "type": "Car Lot 92" }, "geometry": { "type": "MultiPolygon", "coordinates": [ [ [ [ 103.79260226606641, 1.291549778549176 ], [ 103.792575521471676, 1.291519340987571 ], [ 103.792559419637456, 1.291533569304414 ], [ 103.792586164232205, 1.291564006866048 ], [ 103.79260226606641, 1.291549778549176 ] ] ] ] } },
{ "type": "Feature", "properties": { "type": "Car Lot 97" }, "geometry": { "type": "MultiPolygon", "coordinates": [ [ [ [ 103.792524645964718, 1.291690832711627 ], [ 103.792555083526324, 1.291664088116887 ], [ 103.792540855209452, 1.291647986282671 ], [ 103.792510417647833, 1.291674730877412 ], [ 103.792524645964718, 1.291690832711627 ] ] ] ] } },
{ "type": "Feature", "properties": { "type": "Car Lot 98" }, "geometry": { "type": "MultiPolygon", "coordinates": [ [ [ [ 103.79253887768779, 1.291706944994237 ], [ 103.792569315249381, 1.291680200399496 ], [ 103.792555086932524, 1.291664098565281 ], [ 103.792524649370904, 1.291690843160022 ], [ 103.79253887768779, 1.291706944994237 ] ] ] ] } },
{ "type": "Feature", "properties": { "type": "Car Lot 100" }, "geometry": { "type": "MultiPolygon", "coordinates": [ [ [ [ 103.792567348753508, 1.291739177465708 ], [ 103.792597786315127, 1.291712432870967 ], [ 103.79258355799827, 1.291696331036752 ], [ 103.792553120436651, 1.291723075631493 ], [ 103.792567348753508, 1.291739177465708 ] ] ] ] } },
{ "type": "Feature", "properties": { "type": "Car Lot 101" }, "geometry": { "type": "MultiPolygon", "coordinates": [ [ [ [ 103.792581580476579, 1.291755289748318 ], [ 103.792612018038199, 1.291728545153577 ], [ 103.792597789721327, 1.291712443319362 ], [ 103.792567352159708, 1.291739187914102 ], [ 103.792581580476579, 1.291755289748318 ] ] ] ] } },
{ "type": "Feature", "properties": { "type": "Car Lot 99" }, "geometry": { "type": "MultiPolygon", "coordinates": [ [ [ [ 103.792553113077318, 1.291723068992851 ], [ 103.792583550638923, 1.291696324398111 ], [ 103.792569322322052, 1.291680222563895 ], [ 103.792538884760432, 1.291706967158636 ], [ 103.792553113077318, 1.291723068992851 ] ] ] ] } },
{ "type": "Feature", "properties": { "type": "Car Lot 96" }, "geometry": { "type": "MultiPolygon", "coordinates": [ [ [ [ 103.7925104102885, 1.29167472423877 ], [ 103.792540847850105, 1.291647979644029 ], [ 103.792526619533263, 1.291631877809814 ], [ 103.792496181971629, 1.291658622404555 ], [ 103.7925104102885, 1.29167472423877 ] ] ] ] } },
{ "type": "Feature", "properties": { "type": "Car Lot 137" }, "geometry": { "type": "MultiPolygon", "coordinates": [ [ [ [ 103.793094467140179, 1.29233579872825 ], [ 103.793124904701799, 1.29230905413351 ], [ 103.793110676384927, 1.292292952299294 ], [ 103.793080238823308, 1.292319696894035 ], [ 103.793094467140179, 1.29233579872825 ] ] ] ] } }
]
}
