{
"type": "FeatureCollection",
"name": "grab_pillar",
"crs": { "type": "name", "properties": { "name": "urn:ogc:def:crs:OGC:1.3:CRS84" } },
"features": [
{ "type": "Feature", "properties": { "type": "Pillar B9" }, "geometry": { "type": "MultiPolygon", "coordinates": [ [ [ [ 103.792981220805942, 1.292061726918128 ], [ 103.792989304082866, 1.292054681642606 ], [ 103.792982001560745, 1.292046303218167 ], [ 103.792973918283806, 1.292053348493689 ], [ 103.792981220805942, 1.292061726918128 ] ] ] ] } },
{ "type": "Feature", "properties": { "type": "Pillar B10" }, "geometry": { "type": "MultiPolygon", "coordinates": [ [ [ [ 103.793052887841071, 1.292143095133098 ], [ 103.79306098214137, 1.292136062525047 ], [ 103.79305369274924, 1.292127672674753 ], [ 103.793045598448956, 1.292134705282804 ], [ 103.793052887841071, 1.292143095133098 ] ] ] ] } },
{ "type": "Feature", "properties": { "type": "Pillar B11" }, "geometry": { "type": "MultiPolygon", "coordinates": [ [ [ [ 103.79312474926401, 1.292224083542338 ], [ 103.793132660595347, 1.292216845717408 ], [ 103.793125158493197, 1.29220864551688 ], [ 103.793117247161845, 1.29221588334181 ], [ 103.79312474926401, 1.292224083542338 ] ] ] ] } },
{ "type": "Feature", "properties": { "type": "Pillar B8" }, "geometry": { "type": "MultiPolygon", "coordinates": [ [ [ [ 103.792909661696086, 1.291981425890315 ], [ 103.79291774497301, 1.291974380614793 ], [ 103.792910442450889, 1.291966002190354 ], [ 103.792902359173951, 1.291973047465876 ], [ 103.792909661696086, 1.291981425890315 ] ] ] ] } },
{ "type": "Feature", "properties": { "type": "Pillar B7" }, "geometry": { "type": "MultiPolygon", "coordinates": [ [ [ [ 103.792838013641074, 1.291900150224959 ], [ 103.792846096917998, 1.291893104949438 ], [ 103.792838794395877, 1.291884726524998 ], [ 103.792830711118938, 1.29189177180052 ], [ 103.792838013641074, 1.291900150224959 ] ] ] ] } },
{ "type": "Feature", "properties": { "type": "Pillar B6" }, "geometry": { "type": "MultiPolygon", "coordinates": [ [ [ [ 103.792765961847593, 1.291819961547868 ], [ 103.792774045124517, 1.291812916272346 ], [ 103.792766742602396, 1.291804537847907 ], [ 103.792758659325457, 1.291811583123429 ], [ 103.792765961847593, 1.291819961547868 ] ] ] ] } },
{ "type": "Feature", "properties": { "type": "Pillar B5" }, "geometry": { "type": "MultiPolygon", "coordinates": [ [ [ [ 103.79269378582687, 1.291738468484859 ], [ 103.792701869103794, 1.291731423209338 ], [ 103.792694566581673, 1.291723044784899 ], [ 103.792686483304735, 1.29173009006042 ], [ 103.79269378582687, 1.291738468484859 ] ] ] ] } },
{ "type": "Feature", "properties": { "type": "Pillar B4" }, "geometry": { "type": "MultiPolygon", "coordinates": [ [ [ [ 103.792621920374202, 1.291658031353308 ], [ 103.792630003651126, 1.291650986077786 ], [ 103.792622701129005, 1.291642607653347 ], [ 103.792614617852067, 1.291649652928869 ], [ 103.792621920374202, 1.291658031353308 ] ] ] ] } },
{ "type": "Feature", "properties": { "type": "Pillar B2" }, "geometry": { "type": "MultiPolygon", "coordinates": [ [ [ [ 103.792739181093239, 1.291553250885096 ], [ 103.792747264370163, 1.291546205609574 ], [ 103.792739961848042, 1.291537827185135 ], [ 103.792731878571104, 1.291544872460657 ], [ 103.792739181093239, 1.291553250885096 ] ] ] ] } },
{ "type": "Feature", "properties": { "type": "Pillar B1" }, "geometry": { "type": "MultiPolygon", "coordinates": [ [ [ [ 103.792811180559411, 1.29163368281619 ], [ 103.792819263836336, 1.291626637540668 ], [ 103.792811961314214, 1.291618259116229 ], [ 103.792803878037276, 1.29162530439175 ], [ 103.792811180559411, 1.29163368281619 ] ] ] ] } },
{ "type": "Feature", "properties": { "type": "Pillar B13" }, "geometry": { "type": "MultiPolygon", "coordinates": [ [ [ [ 103.79324200059375, 1.292119535513485 ], [ 103.793250083870674, 1.292112490237963 ], [ 103.793242781348553, 1.292104111813524 ], [ 103.793234698071615, 1.292111157089046 ], [ 103.79324200059375, 1.292119535513485 ] ] ] ] } },
{ "type": "Feature", "properties": { "type": "Pillar B12" }, "geometry": { "type": "MultiPolygon", "coordinates": [ [ [ [ 103.793177713002123, 1.292283080662038 ], [ 103.793185796279047, 1.292276035386516 ], [ 103.793178493756926, 1.292267656962077 ], [ 103.793170410479988, 1.292274702237599 ], [ 103.793177713002123, 1.292283080662038 ] ] ] ] } },
{ "type": "Feature", "properties": { "type": "Pillar B3" }, "geometry": { "type": "MultiPolygon", "coordinates": [ [ [ [ 103.792552725806985, 1.291581134697817 ], [ 103.792560809083909, 1.291574089422295 ], [ 103.792553506561788, 1.291565710997856 ], [ 103.792545423284849, 1.291572756273377 ], [ 103.792552725806985, 1.291581134697817 ] ] ] ] } },
{ "type": "Feature", "properties": { "type": "Pillar" }, "geometry": { "type": "MultiPolygon", "coordinates": [ [ [ [ 103.79260066953006, 1.291529698437372 ], [ 103.79260616759403, 1.291524627563721 ], [ 103.792601416241496, 1.291519475938572 ], [ 103.792595918177511, 1.291524546812223 ], [ 103.79260066953006, 1.291529698437372 ] ] ] ] } },
{ "type": "Feature", "properties": { "type": "Pillar" }, "geometry": { "type": "MultiPolygon", "coordinates": [ [ [ [ 103.792631286216505, 1.291502629070549 ], [ 103.792636784280475, 1.291497558196898 ], [ 103.792632032927941, 1.291492406571749 ], [ 103.792626534863956, 1.2914974774454 ], [ 103.792631286216505, 1.291502629070549 ] ] ] ] } },
{ "type": "Feature", "properties": { "type": "Pillar" }, "geometry": { "type": "MultiPolygon", "coordinates": [ [ [ [ 103.792666833913671, 1.291470323677688 ], [ 103.792672331977641, 1.291465252804037 ], [ 103.792667580625107, 1.291460101178888 ], [ 103.792662082561122, 1.291465172052539 ], [ 103.792666833913671, 1.291470323677688 ] ] ] ] } },
{ "type": "Feature", "properties": { "type": "Pillar" }, "geometry": { "type": "MultiPolygon", "coordinates": [ [ [ [ 103.792707832377388, 1.291447493137303 ], [ 103.792713330441359, 1.291442422263652 ], [ 103.792708579088824, 1.291437270638504 ], [ 103.79270308102484, 1.291442341512155 ], [ 103.792707832377388, 1.291447493137303 ] ] ] ] } },
{ "type": "Feature", "properties": { "type": "Pillar" }, "geometry": { "type": "MultiPolygon", "coordinates": [ [ [ [ 103.793078899114008, 1.29211794749867 ], [ 103.793084397177978, 1.292112876625019 ], [ 103.793079645825443, 1.29210772499987 ], [ 103.793074147761459, 1.292112795873521 ], [ 103.793078899114008, 1.29211794749867 ] ] ] ] } },
{ "type": "Feature", "properties": { "type": "Pillar" }, "geometry": { "type": "MultiPolygon", "coordinates": [ [ [ [ 103.79314995708971, 1.292198198289377 ], [ 103.793155455153681, 1.292193127415725 ], [ 103.793150703801146, 1.292187975790577 ], [ 103.793145205737162, 1.292193046664228 ], [ 103.79314995708971, 1.292198198289377 ] ] ] ] } },
{ "type": "Feature", "properties": { "type": "Pillar" }, "geometry": { "type": "MultiPolygon", "coordinates": [ [ [ [ 103.79300684732047, 1.292036330208431 ], [ 103.79301234538444, 1.292031259334779 ], [ 103.793007594031906, 1.292026107709631 ], [ 103.793002095967921, 1.292031178583282 ], [ 103.79300684732047, 1.292036330208431 ] ] ] ] } },
{ "type": "Feature", "properties": { "type": "Pillar B14" }, "geometry": { "type": "MultiPolygon", "coordinates": [ [ [ [ 103.79293429861805, 1.291956079417725 ], [ 103.79293979668202, 1.291951008544073 ], [ 103.792935045329486, 1.291945856918925 ], [ 103.792929547265501, 1.291950927792576 ], [ 103.79293429861805, 1.291956079417725 ] ] ] ] } },
{ "type": "Feature", "properties": { "type": "Pillar B15" }, "geometry": { "type": "MultiPolygon", "coordinates": [ [ [ [ 103.79286249527901, 1.291875207490867 ], [ 103.792867993342981, 1.291870136617216 ], [ 103.792863241990446, 1.291864984992067 ], [ 103.792857743926461, 1.291870055865718 ], [ 103.79286249527901, 1.291875207490867 ] ] ] ] } },
{ "type": "Feature", "properties": { "type": "Pillar 16" }, "geometry": { "type": "MultiPolygon", "coordinates": [ [ [ [ 103.792885818941457, 1.291716600374714 ], [ 103.792891317005427, 1.291711529501063 ], [ 103.792886565652893, 1.291706377875914 ], [ 103.792881067588908, 1.291711448749566 ], [ 103.792885818941457, 1.291716600374714 ] ] ] ] } },
{ "type": "Feature", "properties": { "type": "Pillar B17" }, "geometry": { "type": "MultiPolygon", "coordinates": [ [ [ [ 103.792909919024112, 1.291695605972811 ], [ 103.792915417088082, 1.29169053509916 ], [ 103.792910665735548, 1.291685383474011 ], [ 103.792905167671563, 1.291690454347663 ], [ 103.792909919024112, 1.291695605972811 ] ] ] ] } },
{ "type": "Feature", "properties": { "type": "Pillar" }, "geometry": { "type": "MultiPolygon", "coordinates": [ [ [ [ 103.793066196879721, 1.291956358928992 ], [ 103.793071694943691, 1.291951288055341 ], [ 103.793066943591157, 1.291946136430192 ], [ 103.793061445527172, 1.291951207303843 ], [ 103.793066196879721, 1.291956358928992 ] ] ] ] } },
{ "type": "Feature", "properties": { "type": "Pillar" }, "geometry": { "type": "MultiPolygon", "coordinates": [ [ [ [ 103.792910145018723, 1.291545556990444 ], [ 103.792918228295648, 1.291538511714923 ], [ 103.792910925773526, 1.291530133290483 ], [ 103.792902842496588, 1.291537178566005 ], [ 103.792910145018723, 1.291545556990444 ] ] ] ] } }
]
}
