{
"type": "FeatureCollection",
"name": "grab_lobby",
"crs": { "type": "name", "properties": { "name": "urn:ogc:def:crs:OGC:1.3:CRS84" } },
"features": [
{ "type": "Feature", "properties": { "type": "Passenger Lobby" }, "geometry": { "type": "MultiPolygon", "coordinates": [ [ [ [ 103.793019626091279, 1.29188792735593 ], [ 103.793023228680966, 1.291884697447945 ], [ 103.793017327887526, 1.291877989177515 ], [ 103.793050682898837, 1.291847801960577 ], [ 103.793057266942029, 1.291854820799083 ], [ 103.793061055872556, 1.291851280323022 ], [ 103.792949251365371, 1.291725313911604 ], [ 103.792907324675184, 1.291762333626202 ], [ 103.793019626091279, 1.29188792735593 ] ] ] ] } },
{ "type": "Feature", "properties": { "type": "Wall" }, "geometry": { "type": "MultiPolygon", "coordinates": [ [ [ [ 103.793129598246793, 1.291924729672876 ], [ 103.79311152318482, 1.291904139009471 ], [ 103.7930682299951, 1.291942649450831 ], [ 103.793086677738785, 1.291962836375738 ], [ 103.793129598246793, 1.291924729672876 ] ] ] ] } },
{ "type": "Feature", "properties": { "type": "Wall" }, "geometry": { "type": "MultiPolygon", "coordinates": [ [ [ [ 103.79281474433192, 1.291744320677824 ], [ 103.792800333973219, 1.291727674228978 ], [ 103.792788097591043, 1.291737488180164 ], [ 103.79275530160227, 1.291701089601716 ], [ 103.792735052563742, 1.291718108732253 ], [ 103.792782693706528, 1.291771961236543 ], [ 103.79281474433192, 1.291744320677824 ] ] ] ] } },
{ "type": "Feature", "properties": { "type": "Wall" }, "geometry": { "type": "MultiPolygon", "coordinates": [ [ [ [ 103.79274666780978, 1.291524624821223 ], [ 103.79276312791778, 1.291510400803366 ], [ 103.792753003398516, 1.291499220352648 ], [ 103.792743624242647, 1.291491704605221 ], [ 103.792731822655767, 1.291486114379862 ], [ 103.792719710500833, 1.291485182675636 ], [ 103.792706045505511, 1.291489841196768 ], [ 103.792698716098926, 1.291494934513206 ], [ 103.792692504737417, 1.291499282466263 ], [ 103.792695299850095, 1.291502822942324 ], [ 103.792682442331767, 1.291513754938581 ], [ 103.792686914512061, 1.291518910368634 ], [ 103.792717474410679, 1.291492201514142 ], [ 103.79274666780978, 1.291524624821223 ] ] ] ] } },
{ "type": "Feature", "properties": { "type": "Wall" }, "geometry": { "type": "MultiPolygon", "coordinates": [ [ [ [ 103.792771963579597, 1.291520230282955 ], [ 103.79277426178335, 1.291518335817694 ], [ 103.792747257889175, 1.2914895616855 ], [ 103.792735254433069, 1.291483862761315 ], [ 103.792723825527887, 1.29148203040967 ], [ 103.792709912078095, 1.291484546011081 ], [ 103.792689135073843, 1.291497124018138 ], [ 103.792620468472379, 1.291556442520557 ], [ 103.792572780744365, 1.291501611726829 ], [ 103.792696122855588, 1.291393021599234 ], [ 103.792736822801828, 1.291394217286325 ], [ 103.792778811605629, 1.291414217870386 ], [ 103.792831483951232, 1.291470368578435 ], [ 103.792856981590234, 1.291450864903295 ], [ 103.792803967619648, 1.291390956321531 ], [ 103.792695082452482, 1.291390117787728 ], [ 103.792569799290845, 1.291501922294905 ], [ 103.792624831953802, 1.291565278182305 ], [ 103.792695299850095, 1.291502822942324 ], [ 103.792692504737417, 1.291499282466263 ], [ 103.792706045505511, 1.291489841196768 ], [ 103.792719710500833, 1.291485182675636 ], [ 103.792731822655767, 1.291486114379862 ], [ 103.792743624242647, 1.291491704605221 ], [ 103.79276312791778, 1.291510400803366 ], [ 103.792771963579597, 1.291520230282955 ] ] ] ] } }
]
}
