{
"type": "FeatureCollection",
"name": "grab_background",
"crs": { "type": "name", "properties": { "name": "urn:ogc:def:crs:OGC:1.3:CRS84" } },
"features": [
{ "type": "Feature", "properties": { "type": "Background" }, "geometry": { "type": "MultiPolygon", "coordinates": [ [ [ [ 103.793161183020061, 1.292338996428771 ], [ 103.793254788238016, 1.292258435069989 ], [ 103.793306094084073, 1.292128990296125 ], [ 103.793261931303746, 1.292077125427518 ], [ 103.793220190954401, 1.292112281733664 ], [ 103.79314869818343, 1.292034515487561 ], [ 103.793180438240753, 1.292006999156073 ], [ 103.793150934273569, 1.291974700076221 ], [ 103.793119504784343, 1.292002464862171 ], [ 103.793096895428448, 1.291977495188901 ], [ 103.793223731430444, 1.291865318000034 ], [ 103.792803967619648, 1.291390956321531 ], [ 103.792695641474921, 1.291389962503689 ], [ 103.792497623269995, 1.291564377534884 ], [ 103.792494921327702, 1.29165844860495 ], [ 103.793096274292296, 1.292338313179004 ], [ 103.793126337282004, 1.292311604324512 ], [ 103.793138635777794, 1.292312225460663 ], [ 103.793161183020061, 1.292338996428771 ] ] ] ] } }
]
}
